IRIDIUM 112             
1 41925U 17003J   25201.45400786  .00000004  00000+0 -57850-5 0  9990
2 41925  86.3954 226.8647 0002289  91.8278 268.3180 14.34217817445727
IRIDIUM 111             
1 41926U 17003K   25201.51108650  .00000180  00000+0  57184-4 0  9996
2 41926  86.3951 226.9042 0002121  89.5598 270.5841 14.34217536445715
IRIDIUM 113             
1 42803U 17039A   25201.42128757  .00000003  00000+0 -60307-5 0  9997
2 42803  86.3962 100.8721 0002280  81.2168 278.9286 14.34217410423637
IRIDIUM 123             
1 42804U 17039B   25201.53253348 -.00000014  00000+0 -11980-4 0  9990
2 42804  86.4003 132.2953 0001872  78.0728 282.0678 14.34217476422411
IRIDIUM 120             
1 42805U 17039C   25201.83355430  .00000055  00000+0  12443-4 0  9997
2 42805  86.3953 100.5253 0001904  88.2065 271.9349 14.34217697423686
IRIDIUM 115             
1 42806U 17039D   25201.43983646  .00000284  00000+0  78385-4 0  9991
2 42806  86.4492 100.7735 0001680  71.2470 288.8913 14.43278242426417
IRIDIUM 118             
1 42807U 17039E   25201.56424737  .00000042  00000+0  78602-5 0  9992
2 42807  86.4001 132.2817 0002375  81.7256 278.4209 14.34217472422412
IRIDIUM 117             
1 42808U 17039F   25201.51350510  .00000020  00000+0  41180-7 0  9994
2 42808  86.3999 132.2636 0002145  77.9382 282.2054 14.34217981422437
